[{"OBJECT_NAME":"STARLINK-30548","OBJECT_ID":"2023-156U","EPOCH":"2026-03-09T12:00:31.769280","MEAN_MOTION":15.30179201,"ECCENTRICITY":8.785e-5,"INCLINATION":53.1571,"RA_OF_ASC_NODE":169.0796,"ARG_OF_PERICENTER":82.059,"MEAN_ANOMALY":278.0511,"EPHEMERIS_TYPE":0,"CLASSIFICATION_TYPE":"U","NORAD_CAT_ID":58046,"ELEMENT_SET_NO":999,"REV_AT_EPOCH":13495,"BSTAR":0.00041289113,"MEAN_MOTION_DOT":0.00011881,"MEAN_MOTION_DDOT":0},{"OBJECT_NAME":"COSMOS 1328","OBJECT_ID":"1981-117A","EPOCH":"2026-03-09T17:51:53.113536","MEAN_MOTION":15.33902077,"ECCENTRICITY":0.00108717,"INCLINATION":82.4939,"RA_OF_ASC_NODE":350.453,"ARG_OF_PERICENTER":167.9725,"MEAN_ANOMALY":192.1779,"EPHEMERIS_TYPE":0,"CLASSIFICATION_TYPE":"U","NORAD_CAT_ID":12987,"ELEMENT_SET_NO":999,"REV_AT_EPOCH":41406,"BSTAR":0.00040501644,"MEAN_MOTION_DOT":0.00013342,"MEAN_MOTION_DDOT":0}]
